{"type": "FeatureCollection", "features": [{"type": "Feature", "geometry": {"type": "Polygon", "coordinates": [[[-122.627396, 38.667506], [-122.46389, 38.705203], [-122.397989, 38.804001], [-122.395056, 38.864245], [-122.287998, 38.839931], [-122.224206, 38.699984], [-122.168301, 38.655296], [-122.103281, 38.513348], [-122.126389, 38.428918], [-122.061379, 38.327411], [-122.205982, 38.315713], [-122.195971, 38.162991], [-122.213464, 38.154894], [-122.406786, 38.155632], [-122.349564, 38.193972], [-122.543893, 38.519966], [-122.602659, 38.557496], [-122.646421, 38.598593], [-122.627396, 38.667506]]]}, "properties": {"NAME": "Napa", "eac_baseline": 2291.0, "eac_heat_pump_induction": 3680.0, "eac_full_electric": 3397.0, "eac_full_electric_ev": 12006.0}}, {"type": "Feature", "geometry": {"type": "Polygon", "coordinates": [[[-121.471925, 37.481783], [-121.241219, 37.664009], [-121.110049, 37.742128], [-120.995696, 37.760178], [-120.920993, 37.737947], [-120.926449, 38.077421], [-120.653274, 37.831858], [-120.387613, 37.633704], [-120.38767, 37.633364], [-120.989811, 37.395871], [-120.963812, 37.346144], [-121.226804, 37.134774], [-121.282271, 37.183675], [-121.399451, 37.150386], [-121.459051, 37.282739], [-121.405753, 37.31099], [-121.472648, 37.48217], [-121.471925, 37.481783]]]}, "properties": {"NAME": "Stanislaus", "eac_baseline": 1980.0, "eac_heat_pump_induction": 3297.0, "eac_full_electric": 2996.0, "eac_full_electric_ev": 11558.0}}, {"type": "Feature", "geometry": {"type": "Polygon", "coordinates": [[[-121.580022, 38.094414], [-121.472138, 38.259659], [-121.448142, 38.255008], [-121.398193, 38.227427], [-121.282267, 38.249836], [-121.222512, 38.244406], [-121.027084, 38.300252], [-120.995497, 38.225402], [-120.942113, 38.096328], [-120.926449, 38.077421], [-120.920993, 37.737947], [-120.995696, 37.760178], [-121.110049, 37.742128], [-121.241219, 37.664009], [-121.471925, 37.481783], [-121.556655, 37.542732], [-121.556959, 37.743051], [-121.556997, 37.816488], [-121.534167, 37.849023], [-121.580022, 38.094414]]]}, "properties": {"NAME": "San Joaquin", "eac_baseline": 2148.0, "eac_heat_pump_induction": 3563.0, "eac_full_electric": 3216.0, "eac_full_electric_ev": 11791.0}}, {"type": "Feature", "geometry": {"type": "Polygon", "coordinates": [[[-122.78509, 39.382975], [-122.739062, 39.383266], [-122.192334, 39.385257], [-122.136161, 39.414499], [-122.008857, 39.413567], [-121.890013, 39.383864], [-121.899109, 39.357286], [-121.908269, 39.303878], [-121.945514, 39.179843], [-121.889101, 39.072373], [-121.795366, 38.995686], [-121.835488, 38.924481], [-122.340172, 38.924246], [-122.409118, 38.962793], [-122.413416, 39.020218], [-122.491278, 39.052991], [-122.47729, 39.17395], [-122.680927, 39.238726], [-122.775043, 39.311778], [-122.743482, 39.36813], [-122.78509, 39.382975]]]}, "properties": {"NAME": "Colusa", "eac_baseline": 2219.0, "eac_heat_pump_induction": 3366.0, "eac_full_electric": 2947.0, "eac_full_electric_ev": 11450.0}}, {"type": "Feature", "geometry": {"type": "Polygon", "coordinates": [[[-124.387023, 40.504954], [-124.301355, 40.659643], [-124.176715, 40.843618], [-124.118147, 40.989263], [-124.125448, 41.048504], [-124.154513, 41.087159], [-124.163988, 41.138675], [-124.122677, 41.189726], [-124.092284, 41.287695], [-124.063076, 41.439579], [-124.067473659422, 41.464736188490896], [-123.770551, 41.464193], [-123.770239, 41.380776], [-123.661363, 41.38209], [-123.487831, 41.376934], [-123.408291, 41.179944], [-123.464006, 41.076348], [-123.406082, 41.013792], [-123.481457, 40.914957], [-123.560163, 40.950257], [-123.623826, 40.929421], [-123.55985, 40.829584], [-123.544059, 40.739386], [-123.544458, 40.001923], [-124.02520517453002, 40.001299341669004], [-124.035904, 40.013319], [-124.068908, 40.021307], [-124.087086, 40.078442], [-124.139952, 40.11635], [-124.187874, 40.130542], [-124.258405, 40.184277], [-124.34307, 40.243979], [-124.363414, 40.260974], [-124.353124, 40.331425], [-124.365357, 40.374855], [-124.409591, 40.438076], [-124.387023, 40.504954]]]}, "properties": {"NAME": "Humboldt", "eac_baseline": 3065.0, "eac_heat_pump_induction": 4202.0, "eac_full_electric": 3649.0, "eac_full_electric_ev": 12287.0}}, {"type": "Feature", "geometry": {"type": "Polygon", "coordinates": [[[-123.560163, 40.950257], [-123.481457, 40.914957], [-123.406082, 41.013792], [-123.464006, 41.076348], [-123.408291, 41.179944], [-123.273402, 41.122891], [-123.23948, 41.075763], [-123.109077, 41.075429], [-123.036808, 41.004058], [-122.917529, 40.99399], [-122.897411, 41.028475], [-122.973382, 41.112074], [-122.885921, 41.205142], [-122.811342, 41.202451], [-122.653686, 41.289237], [-122.585241, 41.359008], [-122.50389, 41.342985], [-122.522636, 41.213525], [-122.498376, 41.182675], [-122.445453, 41.15793], [-122.457144, 41.096611], [-122.513354, 41.088227], [-122.527753, 41.014395], [-122.607363, 40.957748], [-122.600458, 40.899749], [-122.666058, 40.825875], [-122.669839, 40.773567], [-122.752023, 40.689882], [-122.69879, 40.569293], [-122.845954, 40.505181], [-122.903738, 40.445071], [-122.998682, 40.418142], [-123.068789, 40.332233], [-123.065426, 40.286971], [-122.97755, 40.241285], [-122.989623, 40.145496], [-122.934013, 39.978131], [-123.544563, 39.977015], [-123.544458, 40.001923], [-123.544059, 40.739386], [-123.55985, 40.829584], [-123.623826, 40.929421], [-123.560163, 40.950257]]]}, "properties": {"NAME": "Trinity", "eac_baseline": 2560.0, "eac_heat_pump_induction": 3908.0, "eac_full_electric": 3375.0, "eac_full_electric_ev": 11931.0}}, {"type": "Feature", "geometry": {"type": "Polygon", "coordinates": [[[-120.194146, 35.789204], [-119.538116, 35.789567], [-119.053437, 35.790748], [-118.803729, 35.790347], [-118.067719, 35.791537], [-118.008043, 35.789161], [-117.924459, 35.798149], [-117.632996, 35.797251], [-117.651986, 35.709934], [-117.616195, 35.680856], [-117.630126, 35.564071], [-117.632011, 34.82227], [-117.667292, 34.822526], [-117.774368, 34.823301], [-118.326281, 34.819726], [-118.894634, 34.817972], [-118.881364, 34.790629], [-118.976721, 34.812199], [-119.243645, 34.814178], [-119.276946, 34.879675], [-119.442352, 34.901274], [-119.472754, 34.901174], [-119.472719, 35.076885], [-119.560975, 35.087673], [-119.553641, 35.179975], [-119.667056, 35.174809], [-119.666663, 35.262527], [-119.809449, 35.263584], [-119.809346, 35.350865], [-119.880172, 35.351211], [-119.880045, 35.439133], [-119.913659, 35.439262], [-120.086674, 35.526554], [-120.085922, 35.614524], [-120.193918, 35.614359], [-120.194146, 35.789204]]]}, "properties": {"NAME": "Kern", "eac_baseline": 1613.0, "eac_heat_pump_induction": 2699.0, "eac_full_electric": 2872.0, "eac_full_electric_ev": 11407.0}}, {"type": "Feature", "geometry": {"type": "MultiPolygon", "coordinates": [[[[-119.47794670672401, 34.378837558775594], [-119.445991, 34.404067], [-119.442269, 34.463949], [-119.442353, 34.561101], [-119.442352, 34.901274], [-119.276946, 34.879675], [-119.243645, 34.814178], [-118.976721, 34.812199], [-118.881364, 34.790629], [-118.738618, 34.498969], [-118.652285, 34.323392], [-118.633461, 34.269522], [-118.667708, 34.236692], [-118.667944, 34.199166], [-118.693834, 34.168557], [-118.723374, 34.167861], [-118.788889, 34.168214], [-118.856473, 34.126765], [-118.940801, 34.074967], [-118.94447951145901, 34.046738953351], [-118.954722, 34.048167], [-119.069959, 34.09047], [-119.109784, 34.094566], [-119.227743, 34.161728], [-119.257043, 34.213304], [-119.270144, 34.252903], [-119.276614251859, 34.2563404250143], [-119.313034, 34.275689], [-119.37578, 34.321118], [-119.461036, 34.374064], [-119.47794670672401, 34.378837558775594]]], [[[-119.47073665694401, 34.053996622104], [-119.442654, 34.054156], [-119.364214, 34.050794], [-119.363065, 34.000548], [-119.391587, 33.994636], [-119.48771955738201, 33.99651515438929], [-119.47073665694401, 34.053996622104]]], [[[-119.578942, 33.278628], [-119.510489, 33.307269], [-119.427171, 33.266023], [-119.429559, 33.228167], [-119.464725, 33.215432], [-119.545872, 33.233406], [-119.578942, 33.278628]]]]}, "properties": {"NAME": "Ventura", "eac_baseline": 1487.0, "eac_heat_pump_induction": 2781.0, "eac_full_electric": 3004.0, "eac_full_electric_ev": 11550.0}}, {"type": "Feature", "geometry": {"type": "Polygon", "coordinates": [[[-120.072484, 38.509869], [-120.072392, 38.702767], [-119.964948, 38.775986], [-119.877287, 38.870193], [-119.904315, 38.933324], [-119.587679, 38.714734], [-119.58540614483901, 38.7131509006712], [-119.619066, 38.603529], [-119.542332, 38.481221], [-119.639205, 38.32688], [-119.705385, 38.416102], [-119.884749, 38.356185], [-120.019951, 38.433521], [-120.072566, 38.447081], [-120.072484, 38.509869]]]}, "properties": {"NAME": "Alpine", "eac_baseline": 3184.0, "eac_heat_pump_induction": 4732.0, "eac_full_electric": 3998.0, "eac_full_electric_ev": 12578.0}}, {"type": "Feature", "geometry": {"type": "Polygon", "coordinates": [[[-122.333711, 37.809797], [-122.303931, 37.830087], [-122.32871428740701, 37.8938323463208], [-122.27108, 37.905824], [-122.14026, 37.804562], [-122.045473, 37.798126], [-122.004809, 37.770571], [-121.997771, 37.763227], [-122.010771, 37.755127], [-122.011771, 37.747428], [-121.989971, 37.733628], [-121.97247, 37.728528], [-121.96077, 37.718629], [-121.873542, 37.739317], [-121.577005, 37.811527], [-121.556997, 37.816488], [-121.556959, 37.743051], [-121.556655, 37.542732], [-121.471925, 37.481783], [-121.472648, 37.48217], [-121.855762, 37.484537], [-121.925041, 37.454186], [-122.059673, 37.464087], [-122.081473, 37.477838], [-122.11724, 37.506721], [-122.12919970222401, 37.5213219985908], [-122.111998, 37.528851], [-122.144396, 37.581866], [-122.152905, 37.640771], [-122.162802519462, 37.6672730133697], [-122.163049, 37.667933], [-122.213774, 37.698695], [-122.24981, 37.726406], [-122.252452, 37.755129], [-122.312974, 37.777244], [-122.333711, 37.809797]]]}, "properties": {"NAME": "Alameda", "eac_baseline": 1997.0, "eac_heat_pump_induction": 3382.0, "eac_full_electric": 3084.0, "eac_full_electric_ev": 11674.0}}, {"type": "Feature", "geometry": {"type": "MultiPolygon", "coordinates": [[[[-118.593969, 33.467198], [-118.484785, 33.487483], [-118.370323, 33.409285], [-118.286261, 33.351463], [-118.325244, 33.299075], [-118.374768, 33.320065], [-118.465368, 33.326056], [-118.482609, 33.369914], [-118.563442, 33.434381], [-118.593969, 33.467198]]], [[[-118.594033, 33.035951], [-118.540069, 32.980933], [-118.446771, 32.895424], [-118.353504, 32.821962], [-118.425634, 32.800595], [-118.487908, 32.84459], [-118.581513, 32.931672], [-118.641578, 33.017129], [-118.594033, 33.035951]]], [[[-118.940801, 34.074967], [-118.856473, 34.126765], [-118.788889, 34.168214], [-118.723374, 34.167861], [-118.693834, 34.168557], [-118.667944, 34.199166], [-118.667708, 34.236692], [-118.633461, 34.269522], [-118.652285, 34.323392], [-118.738618, 34.498969], [-118.881364, 34.790629], [-118.894634, 34.817972], [-118.326281, 34.819726], [-117.774368, 34.823301], [-117.667292, 34.822526], [-117.655235, 34.397222], [-117.646374, 34.28917], [-117.677405, 34.166103], [-117.693545, 34.121627], [-117.70429, 34.095055], [-117.711067, 34.079536], [-117.744342, 34.019852], [-117.767752, 34.019429], [-117.802539, 33.975551], [-117.783287, 33.946411], [-117.919725, 33.947668], [-117.966691, 33.946058], [-117.976593, 33.90281], [-118.028714, 33.866242], [-118.058655, 33.846127], [-118.063268, 33.824107], [-118.093099, 33.786152], [-118.11507672288201, 33.743803322895], [-118.132698, 33.753217], [-118.1837, 33.736118], [-118.23192618587301, 33.715295467827495], [-118.258687, 33.703741], [-118.317205, 33.712818], [-118.333295892977, 33.7211848352577], [-118.354705, 33.732317], [-118.396606, 33.735917], [-118.428407, 33.774715], [-118.394307, 33.804315], [-118.412708, 33.883913], [-118.460611, 33.969111], [-118.519514, 34.027509], [-118.603572, 34.039048], [-118.679366, 34.033255], [-118.744952, 34.032103], [-118.805114, 34.001239], [-118.854653, 34.034215], [-118.94447951145901, 34.046738953351], [-118.940801, 34.074967]]]]}, "properties": {"NAME": "Los Angeles", "eac_baseline": 1429.0, "eac_heat_pump_induction": 2660.0, "eac_full_electric": 2824.0, "eac_full_electric_ev": 11367.0}}, {"type": "Feature", "geometry": {"type": "Polygon", "coordinates": [[[-124.02520517453002, 40.001299341669004], [-123.544458, 40.001923], [-123.544563, 39.977015], [-122.934013, 39.978131], [-122.909787, 39.936385], [-122.950077, 39.907718], [-122.937654, 39.798156], [-122.892676, 39.708898], [-122.885352, 39.580108], [-122.89031, 39.529014], [-123.063181, 39.503539], [-123.075114, 39.407683], [-122.994839, 39.235924], [-123.077812, 39.173791], [-123.056115, 39.048815], [-123.056212, 39.021096], [-122.98664, 38.997283], [-122.948865, 38.90022], [-122.821592, 38.85014], [-123.080997, 38.852438], [-123.136253, 38.809136], [-123.368236, 38.777066], [-123.54092201163401, 38.76765621603929], [-123.571987, 38.798189], [-123.638637, 38.843865], [-123.659846, 38.872529], [-123.71054, 38.91323], [-123.732892, 38.954994], [-123.69074, 39.021293], [-123.721505, 39.125327], [-123.765891, 39.193657], [-123.798991, 39.271355], [-123.825331, 39.360814], [-123.81469, 39.446538], [-123.766475, 39.552803], [-123.782322, 39.621486], [-123.792659, 39.684122], [-123.829545, 39.723071], [-123.851714, 39.832041], [-123.907664, 39.863028], [-123.954952, 39.922373], [-124.02520517453002, 40.001299341669004]]]}, "properties": {"NAME": "Mendocino", "eac_baseline": 2562.0, "eac_heat_pump_induction": 3807.0, "eac_full_electric": 3445.0, "eac_full_electric_ev": 12048.0}}, {"type": "Feature", "geometry": {"type": "Polygon", "coordinates": [[[-120.476692, 37.09639], [-120.227286, 37.1634], [-120.106385, 37.167153], [-120.052055, 37.183108], [-119.761809, 37.417114], [-119.651191, 37.417832], [-119.651172, 37.461351], [-119.58422, 37.494696], [-119.583585, 37.560335], [-119.308995, 37.777986], [-119.268979, 37.73923], [-119.124312, 37.733944], [-119.022363, 37.585737], [-119.286658, 37.374943], [-119.335189, 37.310774], [-119.330573, 37.205791], [-119.36275, 37.167201], [-119.43306, 37.161516], [-119.470844, 37.110548], [-119.506733, 37.150554], [-119.567234, 37.115946], [-119.562979, 37.064095], [-119.604908, 37.071016], [-119.621116, 37.026605], [-119.705356, 36.999794], [-119.713182, 36.991638], [-119.813734, 36.850412], [-119.932338, 36.843323], [-120.028143, 36.814485], [-120.057776, 36.82286], [-120.229179, 36.769687], [-120.370256, 36.78494], [-120.456246, 36.862863], [-120.450341, 36.911172], [-120.541696, 37.044505], [-120.476692, 37.09639]]]}, "properties": {"NAME": "Madera", "eac_baseline": 1756.0, "eac_heat_pump_induction": 3165.0, "eac_full_electric": 2762.0, "eac_full_electric_ev": 11337.0}}, {"type": "Feature", "geometry": {"type": "MultiPolygon", "coordinates": [[[[-119.916216, 34.058351], [-119.857304, 34.071298], [-119.739472, 34.049299], [-119.5667, 34.053452], [-119.47073665694401, 34.053996622104], [-119.48771955738201, 33.99651515438929], [-119.554472, 33.99782], [-119.662825, 33.985889], [-119.721206, 33.959583], [-119.795938, 33.962929], [-119.873358, 33.980375], [-119.876916, 34.023527], [-119.916216, 34.058351]]], [[[-120.368278, 34.076465], [-120.24248, 34.057172], [-120.135853, 34.026087], [-120.055107, 34.037729], [-119.984316, 33.983948], [-119.973691, 33.942481], [-120.049682, 33.914563], [-120.121817, 33.895712], [-120.179049, 33.927994], [-120.200085, 33.956904], [-120.36484, 33.991781], [-120.454134, 34.028081], [-120.368278, 34.076465]]], [[[-120.65030521184, 34.975166302268704], [-120.496222, 34.993155], [-120.435473, 34.986759], [-120.301827, 34.905571], [-120.334548, 35.006315], [-120.188383, 35.030378], [-120.167616, 35.075297], [-120.082084, 35.114678], [-119.980122, 35.057573], [-119.928419, 35.059794], [-119.745566, 34.973676], [-119.672963, 34.973375], [-119.535757, 34.897576], [-119.472754, 34.901174], [-119.442352, 34.901274], [-119.442353, 34.561101], [-119.442269, 34.463949], [-119.445991, 34.404067], [-119.47794670672401, 34.378837558775594], [-119.536957, 34.395495], [-119.616862, 34.420995], [-119.684666, 34.408297], [-119.709067, 34.395397], [-119.785871, 34.415997], [-119.835771, 34.415796], [-119.873971, 34.408795], [-119.971951, 34.444641], [-120.050682, 34.461651], [-120.141165, 34.473405], [-120.295051, 34.470623], [-120.451425, 34.447094], [-120.511421, 34.522953], [-120.550092, 34.542794], [-120.581293, 34.556959], [-120.622575, 34.554017], [-120.645739, 34.581035], [-120.60197, 34.692095], [-120.614852, 34.730709], [-120.62632, 34.738072], [-120.610266, 34.85818], [-120.670835, 34.904115], [-120.65030521184, 34.975166302268704]]]]}, "properties": {"NAME": "Santa Barbara", "eac_baseline": 1500.0, "eac_heat_pump_induction": 2825.0, "eac_full_electric": 2442.0, "eac_full_electric_ev": 11002.0}}, {"type": "Feature", "geometry": {"type": "Polygon", "coordinates": [[[-122.425258, 37.955672], [-122.367582, 37.978168], [-122.368891, 38.007948], [-122.34280385218801, 38.0092538777817], [-122.321706, 38.01031], [-122.262861, 38.051473], [-122.269320054917, 38.06037449753119], [-122.14312, 38.031761], [-122.095733, 38.048355], [-122.050386, 38.060198], [-121.878235, 38.049318], [-121.862462, 38.06603], [-121.80127, 38.021622], [-121.737824, 38.02663], [-121.673065, 38.093518], [-121.580022, 38.094414], [-121.534167, 37.849023], [-121.556997, 37.816488], [-121.577005, 37.811527], [-121.873542, 37.739317], [-121.96077, 37.718629], [-121.97247, 37.728528], [-121.989971, 37.733628], [-122.011771, 37.747428], [-122.010771, 37.755127], [-121.997771, 37.763227], [-122.004809, 37.770571], [-122.045473, 37.798126], [-122.14026, 37.804562], [-122.27108, 37.905824], [-122.32871428740701, 37.8938323463208], [-122.33453, 37.908791], [-122.378709, 37.905191], [-122.425258, 37.955672]]]}, "properties": {"NAME": "Contra Costa", "eac_baseline": 2066.0, "eac_heat_pump_induction": 3523.0, "eac_full_electric": 3222.0, "eac_full_electric_ev": 11804.0}}, {"type": "Feature", "geometry": {"type": "Polygon", "coordinates": [[[-120.65595, 36.952832], [-120.590566, 36.952641], [-120.541696, 37.044505], [-120.450341, 36.911172], [-120.456246, 36.862863], [-120.370256, 36.78494], [-120.229179, 36.769687], [-120.057776, 36.82286], [-120.028143, 36.814485], [-119.932338, 36.843323], [-119.813734, 36.850412], [-119.713182, 36.991638], [-119.705356, 36.999794], [-119.621116, 37.026605], [-119.604908, 37.071016], [-119.562979, 37.064095], [-119.567234, 37.115946], [-119.506733, 37.150554], [-119.470844, 37.110548], [-119.43306, 37.161516], [-119.36275, 37.167201], [-119.330573, 37.205791], [-119.335189, 37.310774], [-119.286658, 37.374943], [-119.022363, 37.585737], [-118.91706, 37.550336], [-118.850474, 37.475796], [-118.775014, 37.463052], [-118.786736, 37.34338], [-118.716016, 37.328208], [-118.654593, 37.141826], [-118.592661, 37.138147], [-118.437137, 37.059818], [-118.360831, 36.887734], [-118.389758, 36.834466], [-118.360586, 36.744773], [-118.982441, 36.741646], [-118.984779, 36.657147], [-119.088295, 36.657514], [-119.174791, 36.658878], [-119.304625, 36.660606], [-119.305102, 36.573725], [-119.466322, 36.575238], [-119.546131, 36.508963], [-119.573194, 36.488835], [-119.6664, 36.41888], [-119.754213, 36.402023], [-119.959227, 36.400975], [-119.959058, 36.181747], [-120.315068, 35.907186], [-120.433053, 35.968933], [-120.667551, 36.138057], [-120.62691, 36.203227], [-120.678582, 36.267319], [-120.596562, 36.328488], [-120.597155, 36.488235], [-120.918731, 36.740381], [-120.65595, 36.952832]]]}, "properties": {"NAME": "Fresno", "eac_baseline": 1777.0, "eac_heat_pump_induction": 3232.0, "eac_full_electric": 2844.0, "eac_full_electric_ev": 11398.0}}, {"type": "Feature", "geometry": {"type": "Polygon", "coordinates": [[[-119.546131, 36.508963], [-119.466322, 36.575238], [-119.305102, 36.573725], [-119.304625, 36.660606], [-119.174791, 36.658878], [-119.088295, 36.657514], [-118.984779, 36.657147], [-118.982441, 36.741646], [-118.360586, 36.744773], [-118.366328, 36.691635], [-118.274624, 36.597334], [-118.290523, 36.558535], [-118.239021, 36.523635], [-118.21482, 36.435036], [-118.100317, 36.346137], [-118.127147, 36.279656], [-118.033611, 36.008944], [-118.003577, 35.983718], [-117.980761, 35.867515], [-118.005489, 35.862699], [-118.008043, 35.789161], [-118.067719, 35.791537], [-118.803729, 35.790347], [-119.053437, 35.790748], [-119.538116, 35.789567], [-119.536161, 36.050782], [-119.529358, 36.26985], [-119.474607, 36.269025], [-119.474892, 36.400953], [-119.528792, 36.401465], [-119.528286, 36.487545], [-119.573194, 36.488835], [-119.546131, 36.508963]]]}, "properties": {"NAME": "Tulare", "eac_baseline": 1844.0, "eac_heat_pump_induction": 3330.0, "eac_full_electric": 3448.0, "eac_full_electric_ev": 11990.0}}, {"type": "Feature", "geometry": {"type": "Polygon", "coordinates": [[[-123.077812, 39.173791], [-122.994839, 39.235924], [-123.075114, 39.407683], [-123.063181, 39.503539], [-122.89031, 39.529014], [-122.885352, 39.580108], [-122.735639, 39.580668], [-122.739062, 39.383266], [-122.78509, 39.382975], [-122.743482, 39.36813], [-122.775043, 39.311778], [-122.680927, 39.238726], [-122.47729, 39.17395], [-122.491278, 39.052991], [-122.413416, 39.020218], [-122.409118, 38.962793], [-122.340172, 38.924246], [-122.403941, 38.925289], [-122.421904, 38.90377], [-122.395056, 38.864245], [-122.397989, 38.804001], [-122.46389, 38.705203], [-122.627396, 38.667506], [-122.77248, 38.82153], [-122.821592, 38.85014], [-122.948865, 38.90022], [-122.98664, 38.997283], [-123.056212, 39.021096], [-123.056115, 39.048815], [-123.077812, 39.173791]]]}, "properties": {"NAME": "Lake", "eac_baseline": 1983.0, "eac_heat_pump_induction": 3128.0, "eac_full_electric": 3109.0, "eac_full_electric_ev": 11554.0}}, {"type": "Feature", "geometry": {"type": "Polygon", "coordinates": [[[-121.970427, 36.582754], [-121.923866, 36.634559], [-121.860604, 36.611136], [-121.814462, 36.682858], [-121.796826, 36.777543], [-121.791544, 36.815186], [-121.81273242676201, 36.8500494437455], [-121.699956, 36.919683], [-121.644001, 36.893996], [-121.597698, 36.83735], [-121.45134, 36.724793], [-121.468086, 36.685518], [-121.350092, 36.648357], [-121.318373, 36.610026], [-121.311788, 36.502736], [-121.244091, 36.506911], [-121.193465, 36.445751], [-121.040797, 36.323969], [-121.027362, 36.26008], [-120.920551, 36.311012], [-120.86508, 36.292578], [-120.761483, 36.20358], [-120.718426, 36.196848], [-120.717696, 36.260012], [-120.75834, 36.308604], [-120.678582, 36.267319], [-120.62691, 36.203227], [-120.667551, 36.138057], [-120.433053, 35.968933], [-120.315068, 35.907186], [-120.27576, 35.905881], [-120.213979, 35.789276], [-120.75065, 35.791131], [-121.347053956004, 35.7951862038146], [-121.406823, 35.844623], [-121.462264, 35.885618], [-121.4862, 35.970348], [-121.531876, 36.014368], [-121.574602, 36.025156], [-121.622009, 36.099695], [-121.680145, 36.165818], [-121.779851, 36.227407], [-121.826425, 36.24186], [-121.888491, 36.30281], [-121.903195, 36.393603], [-121.9416, 36.485602], [-121.970427, 36.582754]]]}, "properties": {"NAME": "Monterey", "eac_baseline": 1980.0, "eac_heat_pump_induction": 3041.0, "eac_full_electric": 2588.0, "eac_full_electric_ev": 11161.0}}, {"type": "Feature", "geometry": {"type": "Polygon", "coordinates": [[[-122.511983, 37.77113], [-122.465396, 37.800879], [-122.398139, 37.80563], [-122.385323, 37.790724], [-122.376462, 37.738558], [-122.356784, 37.729505], [-122.361749, 37.71501], [-122.389826876588, 37.708331], [-122.50067801908301, 37.7081325680179], [-122.505601251345, 37.7355674652407], [-122.511983, 37.77113]]]}, "properties": {"NAME": "San Francisco", "eac_baseline": 2317.0, "eac_heat_pump_induction": 3479.0, "eac_full_electric": 3173.0, "eac_full_electric_ev": 11792.0}}, {"type": "Feature", "geometry": {"type": "Polygon", "coordinates": [[[-122.518088, 37.576138], [-122.496786, 37.612136], [-122.496784, 37.686433], [-122.50067801908301, 37.7081325680179], [-122.389826876588, 37.708331], [-122.39319, 37.707531], [-122.360219, 37.592501], [-122.244372, 37.55814], [-122.168449, 37.504143], [-122.12919970222401, 37.5213219985908], [-122.11724, 37.506721], [-122.081473, 37.477838], [-122.144933, 37.4582], [-122.190402, 37.431472], [-122.192665, 37.31801], [-122.152278, 37.286055], [-122.152774, 37.215444], [-122.317682, 37.186945], [-122.29431019191301, 37.105141386718095], [-122.322971, 37.11546], [-122.344029, 37.144099], [-122.397065, 37.187249], [-122.418452, 37.248521], [-122.40559014390101, 37.3149650377439], [-122.401323, 37.337009], [-122.409258, 37.374805], [-122.443687, 37.435941], [-122.445987, 37.461541], [-122.493789, 37.492341], [-122.516689, 37.52134], [-122.518088, 37.576138]]]}, "properties": {"NAME": "San Mateo", "eac_baseline": 2142.0, "eac_heat_pump_induction": 3402.0, "eac_full_electric": 3058.0, "eac_full_electric_ev": 11669.0}}, {"type": "Feature", "geometry": {"type": "Polygon", "coordinates": [[[-121.058203, 39.537043], [-121.009477, 39.639459], [-120.949435, 39.672548], [-120.873261, 39.776168], [-120.792484, 39.709794], [-120.68076, 39.676833], [-120.654227, 39.706629], [-120.147149, 39.707658], [-120.015734, 39.708721], [-119.99993544808501, 39.7224069247242], [-120.00174, 39.538852], [-120.003028919657, 39.4450457761605], [-120.505445, 39.446117], [-120.575594, 39.522291], [-120.654561, 39.52692], [-120.755729, 39.452663], [-120.992703, 39.414392], [-121.022085, 39.391558], [-121.058203, 39.537043]]]}, "properties": {"NAME": "Sierra", "eac_baseline": 3617.0, "eac_heat_pump_induction": 4538.0, "eac_full_electric": 3858.0, "eac_full_electric_ev": 12351.0}}, {"type": "Feature", "geometry": {"type": "Polygon", "coordinates": [[[-117.596188685737, 33.3869649943199], [-117.57848, 33.453927], [-117.508614, 33.469614], [-117.509722, 33.505019], [-117.364272, 33.505025], [-117.259308, 33.454513], [-117.250495, 33.451629], [-117.241668, 33.448928], [-117.241271, 33.431993], [-117.141574, 33.43261], [-117.089024, 33.430286], [-117.030861, 33.426931], [-116.821826, 33.426873], [-116.197591, 33.428893], [-116.085165, 33.425932], [-116.08109, 33.074833], [-116.105634, 32.72157], [-116.10617888905001, 32.6185781426356], [-116.540643, 32.583747], [-116.62705, 32.576261], [-116.857154, 32.557459], [-117.124862, 32.534156], [-117.13203895573801, 32.585601187382096], [-117.136664, 32.618754], [-117.168866, 32.671952], [-117.196767, 32.688851], [-117.246069, 32.669352], [-117.255169, 32.700051], [-117.25497, 32.786948], [-117.280971, 32.822247], [-117.28217, 32.839547], [-117.27387, 32.851447], [-117.262905, 32.849349], [-117.25617, 32.859447], [-117.25616053514901, 32.8596735941017], [-117.25447, 32.900146], [-117.272139427178, 32.9755245825488], [-117.28077, 33.012343], [-117.315278, 33.093504], [-117.362572, 33.168437], [-117.445583, 33.268517], [-117.547693, 33.365491], [-117.59588, 33.386629], [-117.596188685737, 33.3869649943199]]]}, "properties": {"NAME": "San Diego", "eac_baseline": 1413.0, "eac_heat_pump_induction": 2551.0, "eac_full_electric": 2523.0, "eac_full_electric_ev": 11093.0}}, {"type": "Feature", "geometry": {"type": "Polygon", "coordinates": [[[-122.406786, 38.155632], [-122.213464, 38.154894], [-122.195971, 38.162991], [-122.205982, 38.315713], [-122.061379, 38.327411], [-122.126389, 38.428918], [-122.103281, 38.513348], [-122.011673, 38.488991], [-121.940285, 38.533384], [-121.712034, 38.537962], [-121.693697, 38.313732], [-121.593273, 38.313089], [-121.615413, 38.195696], [-121.685645, 38.159644], [-121.71213, 38.08552], [-121.862462, 38.06603], [-121.878235, 38.049318], [-122.050386, 38.060198], [-122.095733, 38.048355], [-122.14312, 38.031761], [-122.269320054917, 38.06037449753119], [-122.301804, 38.105142], [-122.393588, 38.143449], [-122.39758123062401, 38.14200359725329], [-122.406786, 38.155632]]]}, "properties": {"NAME": "Solano", "eac_baseline": 2481.0, "eac_heat_pump_induction": 3837.0, "eac_full_electric": 3445.0, "eac_full_electric_ev": 12040.0}}, {"type": "Feature", "geometry": {"type": "Polygon", "coordinates": [[[-123.011533, 38.003438], [-122.960889, 38.112962], [-122.953629, 38.17567], [-122.987149, 38.237538], [-122.986319, 38.273164], [-123.003146477056, 38.2957052387145], [-122.910943, 38.321222], [-122.7399, 38.207018], [-122.565093, 38.182217], [-122.505707, 38.115526], [-122.48849963925902, 38.1090944743082], [-122.491283, 38.108087], [-122.499465, 38.032165], [-122.452995, 37.996167], [-122.488665, 37.966714], [-122.486375, 37.921881], [-122.448413, 37.89341], [-122.41847, 37.852721], [-122.483483, 37.826728], [-122.537285, 37.830328], [-122.60129, 37.875126], [-122.678474, 37.906604], [-122.70264, 37.89382], [-122.754606, 37.935527], [-122.797405, 37.976657], [-122.856573, 38.016717], [-122.939711, 38.031908], [-122.97439, 37.992429], [-123.011533, 38.003438]]]}, "properties": {"NAME": "Marin", "eac_baseline": 2540.0, "eac_heat_pump_induction": 3991.0, "eac_full_electric": 3684.0, "eac_full_electric_ev": 12289.0}}, {"type": "Feature", "geometry": {"type": "Polygon", "coordinates": [[[-122.403941, 38.925289], [-122.340172, 38.924246], [-121.835488, 38.924481], [-121.749747, 38.871243], [-121.673826, 38.743141], [-121.602894, 38.735838], [-121.633774, 38.686164], [-121.553609, 38.603326], [-121.544567, 38.597704], [-121.527667, 38.604604], [-121.511566, 38.600904], [-121.506269, 38.586305], [-121.520965, 38.566205], [-121.51129, 38.54629], [-121.513706, 38.540107], [-121.530893, 38.529365], [-121.524018, 38.520868], [-121.551782, 38.513861], [-121.558701, 38.501939], [-121.50509, 38.469563], [-121.521641, 38.360104], [-121.593273, 38.313089], [-121.693697, 38.313732], [-121.712034, 38.537962], [-121.940285, 38.533384], [-122.011673, 38.488991], [-122.103281, 38.513348], [-122.168301, 38.655296], [-122.224206, 38.699984], [-122.287998, 38.839931], [-122.395056, 38.864245], [-122.421904, 38.90377], [-122.403941, 38.925289]]]}, "properties": {"NAME": "Yolo", "eac_baseline": 2424.0, "eac_heat_pump_induction": 3813.0, "eac_full_electric": 3411.0, "eac_full_electric_ev": 11991.0}}, {"type": "Feature", "geometry": {"type": "Polygon", "coordinates": [[[-117.673134, 33.871005], [-117.655375, 33.924343], [-117.610947, 33.925114], [-117.558269, 34.018906], [-117.375278, 34.033875], [-117.371588, 34.019399], [-117.225373, 34.018715], [-117.121293, 34.003916], [-117.104737, 34.004015], [-116.929357, 34.004914], [-116.929558, 34.034113], [-116.300631, 34.032544], [-115.316212, 34.03411], [-115.316065, 34.077843], [-114.43009113852001, 34.078931406279494], [-114.435504, 34.042615], [-114.454807, 34.010968], [-114.509568, 33.957264], [-114.534987, 33.928499], [-114.508708, 33.90064], [-114.505638, 33.864276], [-114.520465, 33.827778], [-114.504863, 33.760465], [-114.496565, 33.719155], [-114.504993, 33.693022], [-114.525201, 33.661583], [-114.529186, 33.60665], [-114.524599, 33.552231], [-114.597283, 33.490653], [-114.629146518189, 33.433544999999796], [-114.830833, 33.430094], [-115.467506, 33.426992], [-116.085165, 33.425932], [-116.197591, 33.428893], [-116.821826, 33.426873], [-117.030861, 33.426931], [-117.089024, 33.430286], [-117.141574, 33.43261], [-117.241271, 33.431993], [-117.241668, 33.448928], [-117.250495, 33.451629], [-117.259308, 33.454513], [-117.364272, 33.505025], [-117.509722, 33.505019], [-117.51021, 33.533999], [-117.457937, 33.602189], [-117.412987, 33.659045], [-117.533999, 33.710355], [-117.675053, 33.868725], [-117.673134, 33.871005]]]}, "properties": {"NAME": "Riverside", "eac_baseline": 1632.0, "eac_heat_pump_induction": 2694.0, "eac_full_electric": 2839.0, "eac_full_electric_ev": 11382.0}}, {"type": "Feature", "geometry": {"type": "Polygon", "coordinates": [[[-123.54092201163401, 38.76765621603929], [-123.368236, 38.777066], [-123.136253, 38.809136], [-123.080997, 38.852438], [-122.821592, 38.85014], [-122.77248, 38.82153], [-122.627396, 38.667506], [-122.646421, 38.598593], [-122.602659, 38.557496], [-122.543893, 38.519966], [-122.349564, 38.193972], [-122.406786, 38.155632], [-122.39758123062401, 38.14200359725329], [-122.48849963925902, 38.1090944743082], [-122.505707, 38.115526], [-122.565093, 38.182217], [-122.7399, 38.207018], [-122.910943, 38.321222], [-123.003146477056, 38.2957052387145], [-123.004122, 38.297012], [-123.053504, 38.299385], [-123.068437, 38.33521], [-123.085572, 38.390525], [-123.166428, 38.474947], [-123.249797, 38.511045], [-123.331899, 38.565542], [-123.349612, 38.596805], [-123.441774, 38.699744], [-123.514784, 38.741966], [-123.54092201163401, 38.76765621603929]]]}, "properties": {"NAME": "Sonoma", "eac_baseline": 2472.0, "eac_heat_pump_induction": 3943.0, "eac_full_electric": 3585.0, "eac_full_electric_ev": 12203.0}}, {"type": "Feature", "geometry": {"type": "Polygon", "coordinates": [[[-122.044865, 39.883771], [-121.804041, 39.884344], [-121.703241, 39.98423], [-121.646032, 39.982527], [-121.586407, 40.100522], [-121.436886, 40.151905], [-121.366818, 40.086054], [-121.41948, 40.015766], [-121.429957, 39.900313], [-121.350821, 39.825704], [-121.210878, 39.725651], [-121.136715, 39.628169], [-121.076695, 39.597264], [-121.149907, 39.526446], [-121.305122, 39.519585], [-121.33442, 39.425212], [-121.407527, 39.339754], [-121.62376, 39.295621], [-121.638066, 39.305566], [-121.908269, 39.303878], [-121.899109, 39.357286], [-121.890013, 39.383864], [-121.856532, 39.536904], [-121.994021, 39.533926], [-121.994343, 39.671458], [-121.94962, 39.732964], [-121.967868, 39.722397], [-122.026498, 39.800137], [-122.046471, 39.797648], [-122.044865, 39.883771]]]}, "properties": {"NAME": "Butte", "eac_baseline": 2152.0, "eac_heat_pump_induction": 3445.0, "eac_full_electric": 3071.0, "eac_full_electric_ev": 11641.0}}, {"type": "Feature", "geometry": {"type": "Polygon", "coordinates": [[[-116.105634, 32.72157], [-116.08109, 33.074833], [-116.085165, 33.425932], [-115.467506, 33.426992], [-114.830833, 33.430094], [-114.629146518189, 33.433544999999796], [-114.635183, 33.422726], [-114.673901, 33.418299], [-114.725282, 33.405048], [-114.707348, 33.376628], [-114.707962, 33.323421], [-114.723259, 33.288079], [-114.674491, 33.255597], [-114.678097, 33.2303], [-114.679359, 33.159519], [-114.706175, 33.105335], [-114.670803, 33.037984], [-114.628293, 33.031052], [-114.575161, 33.036542], [-114.517066790281, 33.0246287635685], [-114.511343, 33.023455], [-114.481315, 32.972064], [-114.47664, 32.923628], [-114.463127, 32.901884], [-114.468971, 32.845155], [-114.531746, 32.782503], [-114.570675, 32.747417], [-114.617386523962, 32.7410527731766], [-114.667493, 32.734226], [-114.705717, 32.741581], [-114.719633, 32.718763], [-115.000802, 32.699676], [-115.465164, 32.6671], [-116.04662, 32.623353], [-116.10617888905001, 32.6185781426356], [-116.105634, 32.72157]]]}, "properties": {"NAME": "Imperial", "eac_baseline": 1156.0, "eac_heat_pump_induction": 2052.0, "eac_full_electric": 2187.0, "eac_full_electric_ev": 10637.0}}, {"type": "Feature", "geometry": {"type": "Polygon", "coordinates": [[[-121.266132, 39.272717], [-121.127481, 39.380237], [-121.022085, 39.391558], [-120.992703, 39.414392], [-120.755729, 39.452663], [-120.654561, 39.52692], [-120.575594, 39.522291], [-120.505445, 39.446117], [-120.003028919657, 39.4450457761605], [-120.004795512304, 39.316475011958495], [-120.036657, 39.316334], [-120.322378, 39.316427], [-120.5546, 39.315596], [-120.671433, 39.310371], [-120.727893, 39.288081], [-120.986348, 39.102234], [-121.068788, 39.005177], [-121.137979, 39.037911], [-121.279533, 39.034618], [-121.266132, 39.272717]]]}, "properties": {"NAME": "Nevada", "eac_baseline": 4005.0, "eac_heat_pump_induction": 5093.0, "eac_full_electric": 4482.0, "eac_full_electric_ev": 13106.0}}, {"type": "Feature", "geometry": {"type": "Polygon", "coordinates": [[[-119.639205, 38.32688], [-119.542332, 38.481221], [-119.619066, 38.603529], [-119.58540614483901, 38.7131509006712], [-119.328704521076, 38.5343519277975], [-119.279262, 38.499914], [-119.15722610087201, 38.4143919717613], [-118.949673, 38.26894], [-118.500958, 37.949019], [-118.42799532515701, 37.8962242809098], [-118.022181, 37.602583], [-117.83350404414401, 37.464938766244494], [-118.775014, 37.463052], [-118.850474, 37.475796], [-118.91706, 37.550336], [-119.022363, 37.585737], [-119.124312, 37.733944], [-119.268979, 37.73923], [-119.20128, 37.804329], [-119.200283, 37.885827], [-119.308389, 37.946824], [-119.30459, 38.023891], [-119.345922, 38.083113], [-119.469456, 38.128283], [-119.576496, 38.157661], [-119.632671, 38.198858], [-119.604182, 38.234961], [-119.651509, 38.286462], [-119.639205, 38.32688]]]}, "properties": {"NAME": "Mono", "eac_baseline": 1899.0, "eac_heat_pump_induction": 3079.0, "eac_full_electric": 3158.0, "eac_full_electric_ev": 11597.0}}, {"type": "Feature", "geometry": {"type": "Polygon", "coordinates": [[[-121.908269, 39.303878], [-121.638066, 39.305566], [-121.62376, 39.295621], [-121.58591, 39.089691], [-121.610138, 39.057847], [-121.575415, 38.918348], [-121.543306, 38.972404], [-121.414779, 38.996452], [-121.414399, 38.926214], [-121.469356, 38.925992], [-121.484396, 38.734598], [-121.559868, 38.736302], [-121.602894, 38.735838], [-121.673826, 38.743141], [-121.749747, 38.871243], [-121.835488, 38.924481], [-121.795366, 38.995686], [-121.889101, 39.072373], [-121.945514, 39.179843], [-121.908269, 39.303878]]]}, "properties": {"NAME": "Sutter", "eac_baseline": 2263.0, "eac_heat_pump_induction": 3705.0, "eac_full_electric": 3292.0, "eac_full_electric_ev": 11915.0}}, {"type": "Feature", "geometry": {"type": "Polygon", "coordinates": [[[-121.226804, 37.134774], [-120.963812, 37.346144], [-120.989811, 37.395871], [-120.38767, 37.633364], [-120.177636, 37.261526], [-120.052055, 37.183108], [-120.106385, 37.167153], [-120.227286, 37.1634], [-120.476692, 37.09639], [-120.541696, 37.044505], [-120.590566, 36.952641], [-120.65595, 36.952832], [-120.918731, 36.740381], [-121.141523, 36.836656], [-121.234683, 36.926894], [-121.215406, 36.961248], [-121.245887, 36.983036], [-121.226804, 37.134774]]]}, "properties": {"NAME": "Merced", "eac_baseline": 1978.0, "eac_heat_pump_induction": 3218.0, "eac_full_electric": 2786.0, "eac_full_electric_ev": 11311.0}}, {"type": "Feature", "geometry": {"type": "Polygon", "coordinates": [[[-122.317682, 37.186945], [-122.152774, 37.215444], [-122.152278, 37.286055], [-121.99109, 37.14427], [-121.84629, 37.09702], [-121.809076, 37.069301], [-121.738627, 36.990085], [-121.581354, 36.899152], [-121.644001, 36.893996], [-121.699956, 36.919683], [-121.81273242676201, 36.8500494437455], [-121.862266, 36.931552], [-121.906468, 36.96895], [-121.95167, 36.97145], [-122.027174, 36.95115], [-122.06731672906, 36.9535956897314], [-122.105976, 36.955951], [-122.20618, 37.013949], [-122.260481, 37.072548], [-122.284882, 37.101747], [-122.29431019191301, 37.105141386718095], [-122.317682, 37.186945]]]}, "properties": {"NAME": "Santa Cruz", "eac_baseline": 2223.0, "eac_heat_pump_induction": 3353.0, "eac_full_electric": 3011.0, "eac_full_electric_ev": 11629.0}}, {"type": "Feature", "geometry": {"type": "Polygon", "coordinates": [[[-122.190402, 37.431472], [-122.144933, 37.4582], [-122.081473, 37.477838], [-122.059673, 37.464087], [-121.925041, 37.454186], [-121.855762, 37.484537], [-121.472648, 37.48217], [-121.405753, 37.31099], [-121.459051, 37.282739], [-121.399451, 37.150386], [-121.282271, 37.183675], [-121.226804, 37.134774], [-121.245887, 36.983036], [-121.215406, 36.961248], [-121.418246, 36.960549], [-121.452182, 36.988759], [-121.501488, 36.971895], [-121.510185, 36.956019], [-121.513813, 36.945155], [-121.534463, 36.930933], [-121.540016, 36.920765], [-121.548009, 36.917391], [-121.581354, 36.899152], [-121.738627, 36.990085], [-121.809076, 37.069301], [-121.84629, 37.09702], [-121.99109, 37.14427], [-122.152278, 37.286055], [-122.192665, 37.31801], [-122.190402, 37.431472]]]}, "properties": {"NAME": "Santa Clara", "eac_baseline": 1984.0, "eac_heat_pump_induction": 3361.0, "eac_full_electric": 3028.0, "eac_full_electric_ev": 11622.0}}, {"type": "Feature", "geometry": {"type": "Polygon", "coordinates": [[[-124.219592, 41.846432], [-124.203402, 41.940964], [-124.211605, 41.99846], [-124.001188, 41.996146], [-123.822037598588, 41.995620816947], [-123.656998, 41.995137], [-123.51911283680401, 41.9991725180329], [-123.565442, 41.903141], [-123.642812, 41.889353], [-123.703681, 41.829487], [-123.660205, 41.714055], [-123.719174, 41.595613], [-123.648046, 41.535024], [-123.61179, 41.462127], [-123.661363, 41.38209], [-123.770239, 41.380776], [-123.770551, 41.464193], [-124.067473659422, 41.464736188490896], [-124.081987, 41.547761], [-124.116037, 41.628849], [-124.143479, 41.709284], [-124.154246, 41.728801], [-124.19104, 41.736079], [-124.245027, 41.7923], [-124.219592, 41.846432]]]}, "properties": {"NAME": "Del Norte", "eac_baseline": 3189.0, "eac_heat_pump_induction": 3931.0, "eac_full_electric": 3291.0, "eac_full_electric_ev": 11884.0}}, {"type": "Feature", "geometry": {"type": "Polygon", "coordinates": [[[-121.644001, 36.893996], [-121.581354, 36.899152], [-121.548009, 36.917391], [-121.540016, 36.920765], [-121.534463, 36.930933], [-121.513813, 36.945155], [-121.510185, 36.956019], [-121.501488, 36.971895], [-121.452182, 36.988759], [-121.418246, 36.960549], [-121.215406, 36.961248], [-121.234683, 36.926894], [-121.141523, 36.836656], [-120.918731, 36.740381], [-120.597155, 36.488235], [-120.596562, 36.328488], [-120.678582, 36.267319], [-120.75834, 36.308604], [-120.717696, 36.260012], [-120.718426, 36.196848], [-120.761483, 36.20358], [-120.86508, 36.292578], [-120.920551, 36.311012], [-121.027362, 36.26008], [-121.040797, 36.323969], [-121.193465, 36.445751], [-121.244091, 36.506911], [-121.311788, 36.502736], [-121.318373, 36.610026], [-121.350092, 36.648357], [-121.468086, 36.685518], [-121.45134, 36.724793], [-121.597698, 36.83735], [-121.644001, 36.893996]]]}, "properties": {"NAME": "San Benito", "eac_baseline": 1822.0, "eac_heat_pump_induction": 3307.0, "eac_full_electric": 2857.0, "eac_full_electric_ev": 11465.0}}, {"type": "Feature", "geometry": {"type": "Polygon", "coordinates": [[[-118.093099, 33.786152], [-118.063268, 33.824107], [-118.058655, 33.846127], [-118.028714, 33.866242], [-117.976593, 33.90281], [-117.966691, 33.946058], [-117.919725, 33.947668], [-117.783287, 33.946411], [-117.673134, 33.871005], [-117.675053, 33.868725], [-117.533999, 33.710355], [-117.412987, 33.659045], [-117.457937, 33.602189], [-117.51021, 33.533999], [-117.509722, 33.505019], [-117.508614, 33.469614], [-117.57848, 33.453927], [-117.596188685737, 33.3869649943199], [-117.645582, 33.440728], [-117.715349, 33.460556], [-117.726486, 33.483427], [-117.73225829761401, 33.4879550239786], [-117.814188, 33.552224], [-117.840289, 33.573523], [-117.927091, 33.605521], [-118.000593, 33.654319], [-118.088896, 33.729817], [-118.11507672288201, 33.743803322895], [-118.093099, 33.786152]]]}, "properties": {"NAME": "Orange", "eac_baseline": 1442.0, "eac_heat_pump_induction": 2572.0, "eac_full_electric": 2765.0, "eac_full_electric_ev": 11321.0}}, {"type": "Feature", "geometry": {"type": "Polygon", "coordinates": [[[-117.802539, 33.975551], [-117.767752, 34.019429], [-117.744342, 34.019852], [-117.711067, 34.079536], [-117.70429, 34.095055], [-117.693545, 34.121627], [-117.677405, 34.166103], [-117.646374, 34.28917], [-117.655235, 34.397222], [-117.667292, 34.822526], [-117.632011, 34.82227], [-117.630126, 35.564071], [-117.616195, 35.680856], [-117.651986, 35.709934], [-117.632996, 35.797251], [-117.251015, 35.795004], [-116.277263, 35.793394], [-115.735891, 35.79362], [-115.648032019625, 35.8096292126029], [-115.647683, 35.809358], [-115.404537, 35.617605], [-115.303743, 35.538207], [-115.160068, 35.424129], [-115.043812, 35.332012], [-114.804249, 35.139689], [-114.633487, 35.001857], [-114.629769, 34.94304], [-114.634382, 34.87289], [-114.576452, 34.8153], [-114.490971, 34.724848], [-114.465246, 34.691202], [-114.422382, 34.580711], [-114.378223, 34.516521], [-114.378852, 34.450376], [-114.335372, 34.450038], [-114.264317, 34.401329], [-114.172845, 34.344979], [-114.14093, 34.305919], [-114.14081715128, 34.3031275138817], [-114.139055, 34.259538], [-114.17805, 34.239969], [-114.229715, 34.186928], [-114.292806, 34.166725], [-114.348052, 34.134458], [-114.405941, 34.11154], [-114.428026, 34.092787], [-114.43009113852001, 34.078931406279494], [-115.316065, 34.077843], [-115.316212, 34.03411], [-116.300631, 34.032544], [-116.929558, 34.034113], [-116.929357, 34.004914], [-117.104737, 34.004015], [-117.121293, 34.003916], [-117.225373, 34.018715], [-117.371588, 34.019399], [-117.375278, 34.033875], [-117.558269, 34.018906], [-117.610947, 33.925114], [-117.655375, 33.924343], [-117.673134, 33.871005], [-117.783287, 33.946411], [-117.802539, 33.975551]]]}, "properties": {"NAME": "San Bernardino", "eac_baseline": 1405.0, "eac_heat_pump_induction": 2696.0, "eac_full_electric": 2847.0, "eac_full_electric_ev": 11373.0}}, {"type": "Feature", "geometry": {"type": "Polygon", "coordinates": [[[-121.027507, 38.508292], [-120.927113, 38.514965], [-120.813554, 38.562193], [-120.627604, 38.503143], [-120.510596, 38.511467], [-120.301721, 38.549109], [-120.212787, 38.629371], [-120.140084, 38.638374], [-120.098322, 38.709029], [-120.072392, 38.702767], [-120.072484, 38.509869], [-120.205702, 38.501039], [-120.33104, 38.465192], [-120.423215, 38.473322], [-120.614881, 38.389408], [-120.63129, 38.340263], [-120.810126, 38.28201], [-120.892864, 38.221574], [-120.995497, 38.225402], [-121.027084, 38.300252], [-121.027507, 38.508292]]]}, "properties": {"NAME": "Amador", "eac_baseline": 4120.0, "eac_heat_pump_induction": 5338.0, "eac_full_electric": 4715.0, "eac_full_electric_ev": 13349.0}}, {"type": "Feature", "geometry": {"type": "Polygon", "coordinates": [[[-123.065426, 40.286971], [-122.976548, 40.315162], [-122.918472, 40.306758], [-122.872769, 40.348848], [-122.749393, 40.365522], [-122.651341, 40.328288], [-122.523997, 40.3945], [-122.445021, 40.373398], [-122.310412, 40.371064], [-122.010316, 40.426558], [-121.940989, 40.415331], [-121.806539, 40.44495], [-121.64633, 40.434726], [-121.497635, 40.445591], [-121.470395, 40.350213], [-121.342264, 40.309751], [-121.368395, 40.21223], [-121.436886, 40.151905], [-121.586407, 40.100522], [-121.646032, 39.982527], [-121.703241, 39.98423], [-121.804041, 39.884344], [-122.044865, 39.883771], [-122.046471, 39.797648], [-122.911794, 39.799485], [-122.937654, 39.798156], [-122.950077, 39.907718], [-122.909787, 39.936385], [-122.934013, 39.978131], [-122.989623, 40.145496], [-122.97755, 40.241285], [-123.065426, 40.286971]]]}, "properties": {"NAME": "Tehama", "eac_baseline": 2195.0, "eac_heat_pump_induction": 3384.0, "eac_full_electric": 3031.0, "eac_full_electric_ev": 11475.0}}, {"type": "Feature", "geometry": {"type": "Polygon", "coordinates": [[[-123.068789, 40.332233], [-122.998682, 40.418142], [-122.903738, 40.445071], [-122.845954, 40.505181], [-122.69879, 40.569293], [-122.752023, 40.689882], [-122.669839, 40.773567], [-122.666058, 40.825875], [-122.600458, 40.899749], [-122.607363, 40.957748], [-122.527753, 41.014395], [-122.513354, 41.088227], [-122.457144, 41.096611], [-122.445453, 41.15793], [-122.498376, 41.182675], [-121.446495, 41.183484], [-121.331786, 41.183886], [-121.319976, 40.905886], [-121.327826, 40.445367], [-121.361456, 40.446822], [-121.497635, 40.445591], [-121.64633, 40.434726], [-121.806539, 40.44495], [-121.940989, 40.415331], [-122.010316, 40.426558], [-122.310412, 40.371064], [-122.445021, 40.373398], [-122.523997, 40.3945], [-122.651341, 40.328288], [-122.749393, 40.365522], [-122.872769, 40.348848], [-122.918472, 40.306758], [-122.976548, 40.315162], [-123.065426, 40.286971], [-123.068789, 40.332233]]]}, "properties": {"NAME": "Shasta", "eac_baseline": 2050.0, "eac_heat_pump_induction": 3497.0, "eac_full_electric": 3136.0, "eac_full_electric_ev": 11680.0}}, {"type": "Feature", "geometry": {"type": "Polygon", "coordinates": [[[-121.497635, 40.445591], [-121.361456, 40.446822], [-121.327826, 40.445367], [-121.061417, 40.446536], [-121.061493, 40.256417], [-120.928582, 40.191931], [-120.764403, 40.31601], [-120.652158, 40.307656], [-120.510817, 40.248945], [-120.482848, 40.205798], [-120.341385, 40.115243], [-120.209641, 40.086008], [-120.201264, 40.013474], [-120.108761, 39.93951], [-120.110627, 39.765779], [-120.147149, 39.707658], [-120.654227, 39.706629], [-120.68076, 39.676833], [-120.792484, 39.709794], [-120.873261, 39.776168], [-120.949435, 39.672548], [-121.009477, 39.639459], [-121.076695, 39.597264], [-121.136715, 39.628169], [-121.210878, 39.725651], [-121.350821, 39.825704], [-121.429957, 39.900313], [-121.41948, 40.015766], [-121.366818, 40.086054], [-121.436886, 40.151905], [-121.368395, 40.21223], [-121.342264, 40.309751], [-121.470395, 40.350213], [-121.497635, 40.445591]]]}, "properties": {"NAME": "Plumas", "eac_baseline": 4112.0, "eac_heat_pump_induction": 5211.0, "eac_full_electric": 4443.0, "eac_full_electric_ev": 13067.0}}, {"type": "Feature", "geometry": {"type": "Polygon", "coordinates": [[[-121.862462, 38.06603], [-121.71213, 38.08552], [-121.685645, 38.159644], [-121.615413, 38.195696], [-121.593273, 38.313089], [-121.521641, 38.360104], [-121.50509, 38.469563], [-121.558701, 38.501939], [-121.551782, 38.513861], [-121.524018, 38.520868], [-121.530893, 38.529365], [-121.513706, 38.540107], [-121.51129, 38.54629], [-121.520965, 38.566205], [-121.506269, 38.586305], [-121.511566, 38.600904], [-121.527667, 38.604604], [-121.544567, 38.597704], [-121.553609, 38.603326], [-121.633774, 38.686164], [-121.602894, 38.735838], [-121.559868, 38.736302], [-121.484396, 38.734598], [-121.381658, 38.727796], [-121.30883, 38.72279], [-121.141009, 38.71198], [-121.118617, 38.717118], [-121.027507, 38.508292], [-121.027084, 38.300252], [-121.222512, 38.244406], [-121.282267, 38.249836], [-121.398193, 38.227427], [-121.448142, 38.255008], [-121.472138, 38.259659], [-121.580022, 38.094414], [-121.673065, 38.093518], [-121.737824, 38.02663], [-121.80127, 38.021622], [-121.862462, 38.06603]]]}, "properties": {"NAME": "Sacramento", "eac_baseline": 2296.0, "eac_heat_pump_induction": 3683.0, "eac_full_electric": 3211.0, "eac_full_electric_ev": 11800.0}}, {"type": "Feature", "geometry": {"type": "Polygon", "coordinates": [[[-120.315068, 35.907186], [-119.959058, 36.181747], [-119.959227, 36.400975], [-119.754213, 36.402023], [-119.6664, 36.41888], [-119.573194, 36.488835], [-119.528286, 36.487545], [-119.528792, 36.401465], [-119.474892, 36.400953], [-119.474607, 36.269025], [-119.529358, 36.26985], [-119.536161, 36.050782], [-119.538116, 35.789567], [-120.194146, 35.789204], [-120.213979, 35.789276], [-120.27576, 35.905881], [-120.315068, 35.907186]]]}, "properties": {"NAME": "Kings", "eac_baseline": 1849.0, "eac_heat_pump_induction": 3202.0, "eac_full_electric": 2791.0, "eac_full_electric_ev": 11334.0}}, {"type": "Feature", "geometry": {"type": "Polygon", "coordinates": [[[-121.347053956004, 35.7951862038146], [-120.75065, 35.791131], [-120.213979, 35.789276], [-120.194146, 35.789204], [-120.193918, 35.614359], [-120.085922, 35.614524], [-120.086674, 35.526554], [-119.913659, 35.439262], [-119.880045, 35.439133], [-119.880172, 35.351211], [-119.809346, 35.350865], [-119.809449, 35.263584], [-119.666663, 35.262527], [-119.667056, 35.174809], [-119.553641, 35.179975], [-119.560975, 35.087673], [-119.472719, 35.076885], [-119.472754, 34.901174], [-119.535757, 34.897576], [-119.672963, 34.973375], [-119.745566, 34.973676], [-119.928419, 35.059794], [-119.980122, 35.057573], [-120.082084, 35.114678], [-120.167616, 35.075297], [-120.188383, 35.030378], [-120.334548, 35.006315], [-120.301827, 34.905571], [-120.435473, 34.986759], [-120.496222, 34.993155], [-120.65030521184, 34.975166302268704], [-120.63357, 35.033085], [-120.629583, 35.078362], [-120.635787, 35.123805], [-120.675074, 35.153061], [-120.714185, 35.175998], [-120.756086, 35.160459], [-120.846674, 35.204429], [-120.89679, 35.247877], [-120.87957, 35.294184], [-120.862133, 35.360763], [-120.884757, 35.430196], [-120.955863, 35.453743], [-121.003359, 35.46071], [-121.11424, 35.57172], [-121.166712, 35.635399], [-121.272322, 35.666711], [-121.314632, 35.71331], [-121.332449, 35.783106], [-121.347053956004, 35.7951862038146]]]}, "properties": {"NAME": "San Luis Obispo", "eac_baseline": 1589.0, "eac_heat_pump_induction": 2641.0, "eac_full_electric": 2821.0, "eac_full_electric_ev": 11373.0}}]}